NORAD_CAT_ID,OBJECT_NAME,OBJECT_TYPE,EPOCH,MEAN_MOTION,ECCENTRICITY,INCLINATION,RA_OF_ASC_NODE,ARG_OF_PERICENTER,MEAN_ANOMALY,BSTAR,MEAN_MOTION_DOT,MEAN_MOTION_DDOT,TLE_LINE0,TLE_LINE1,TLE_LINE2,SEMIMAJOR_AXIS,PERIOD,APOGEE,PERIGEE,DECAYED
50817.0,STARLINK-3341,PAYLOAD,2022-07-22 09:19:52,15.08842994,0.0001578,53.2196,3.1124,62.1669,297.9483,2.9922e-05,1.88e-06,0.0,0 STARLINK-3341,1 50817U 22001Q   22203.38879654  .00000188  00000-0  29922-4 0  9990,2 50817  53.2196   3.1124 0001578  62.1669 297.9483 15.08842994 31434,6917.871,95.437,540.828,538.645,0.0
50817.0,STARLINK-3341,PAYLOAD,2022-07-22 20:27:34,15.08838087,0.000161,53.2199,1.0313,65.0311,295.0849,-1.5425999999999998e-05,-5.34e-06,0.0,0 STARLINK-3341,1 50817U 22001Q   22203.85248174 -.00000534  00000-0 -15426-4 0  9990,2 50817  53.2199   1.0313 0001610  65.0311 295.0849 15.08838087 30259,6917.886,95.438,540.865,538.637,0.0
50817.0,STARLINK-3341,PAYLOAD,2022-07-23 10:46:02,15.08833819,0.0001551999999999,53.2196,358.3547,59.9896,300.125,0.00016954,2.411e-05,0.0,0 STARLINK-3341,1 50817U 22001Q   22204.44864132  .00002411  00000-0  16954-3 0  9994,2 50817  53.2196 358.3547 0001552  59.9896 300.1250 15.08833819 30340,6917.899,95.438,540.8380000000002,538.691,0.0
50817.0,STARLINK-3341,PAYLOAD,2022-07-23 20:18:22,15.08828519,0.0001499,53.2194,356.5706,53.5844,306.5286,5.4988e-05,5.87e-06,0.0,0 STARLINK-3341,1 50817U 22001Q   22204.84608924  .00000587  00000-0  54988-4 0  9995,2 50817  53.2194 356.5706 0001499  53.5844 306.5286 15.08828519 30405,6917.915,95.438,540.817,538.743,0.0
50817.0,STARLINK-3341,PAYLOAD,2022-07-24 10:36:49,15.08838262,0.0001349,53.22,353.8945,53.2263,306.8853,9.1431e-05,1.167e-05,0.0,0 STARLINK-3341,1 50817U 22001Q   22205.44224353  .00001167  00000-0  91431-4 0  9991,2 50817  53.2200 353.8945 0001349  53.2263 306.8853 15.08838262 30492,6917.886,95.438,540.684,538.817,0.0
50817.0,STARLINK-3341,PAYLOAD,2022-07-24 18:33:45,15.08840904,0.0001382,53.2197,352.4078,52.5468,307.565,0.00013862,1.919e-05,0.0,0 STARLINK-3341,1 50817U 22001Q   22205.77344091  .00001919  00000-0  13862-3 0  9995,2 50817  53.2197 352.4078 0001382  52.5468 307.5650 15.08840904 30540,6917.878000000002,95.437,540.6990000000002,538.7869999999998,0.0
50817.0,STARLINK-3341,PAYLOAD,2022-07-25 02:30:41,15.08831884,0.000139,53.2189,350.921,46.4758,313.635,2.1262e-05,5e-07,0.0,0 STARLINK-3341,1 50817U 22001Q   22206.10465054  .00000050  00000-0  21262-4 0  9995,2 50817  53.2189 350.9210 0001390  46.4758 313.6350 15.08831884 31841,6917.905,95.438,540.732,538.809,0.0
50817.0,STARLINK-3341,PAYLOAD,2022-07-25 08:52:14,15.08835885,0.0001440999999999,53.2187,349.7312,48.8882,311.2234,2.0342e-05,3.6e-07,0.0,0 STARLINK-3341,1 50817U 22001Q   22206.36960898  .00000036  00000-0  20342-4 0  9991,2 50817  53.2187 349.7312 0001441  48.8882 311.2234 15.08835885 30635,6917.893,95.438,540.755,538.761,0.0
50817.0,STARLINK-3341,PAYLOAD,2022-07-25 16:49:09,15.0883531,0.0001478,53.2192,348.2444,50.2788,309.8334,8.680700000000001e-05,1.094e-05,0.0,0 STARLINK-3341,1 50817U 22001Q   22206.70080801  .00001094  00000-0  86807-4 0  9999,2 50817  53.2192 348.2444 0001478  50.2788 309.8334 15.08835310 30685,6917.895,95.438,540.7819999999998,538.737,0.0
50817.0,STARLINK-3341,PAYLOAD,2022-07-26 02:21:28,15.08838715,0.000143,53.2193,346.4606,50.0193,310.0925,8.8805e-05,1.126e-05,0.0,0 STARLINK-3341,1 50817U 22001Q   22207.09824651  .00001126  00000-0  88805-4 0  9997,2 50817  53.2193 346.4606 0001430  50.0193 310.0925 15.08838715 31999,6917.884,95.438,540.739,538.76,0.0
50817.0,STARLINK-3341,PAYLOAD,2022-07-26 13:29:11,15.08829294,0.0001496999999999,53.2195,344.3799,52.9471,307.1658,-4.9738e-05,-1.079e-05,0.0,0 STARLINK-3341,1 50817U 22001Q   22207.56193875 -.00001079  00000-0 -49738-4 0  9997,2 50817  53.2195 344.3799 0001497  52.9471 307.1658 15.08829294 30816,6917.913000000001,95.438,540.814,538.743,0.0
50817.0,STARLINK-3341,PAYLOAD,2022-07-26 16:39:57,15.08831745,0.0001483,53.2195,343.7848,52.9619,307.1508,-5.1465e-05,-1.107e-05,0.0,0 STARLINK-3341,1 50817U 22001Q   22207.69441782 -.00001107  00000-0 -51465-4 0  9996,2 50817  53.2195 343.7848 0001483  52.9619 307.1508 15.08831745 32082,6917.906,95.438,540.797,538.745,0.0
50817.0,STARLINK-3341,PAYLOAD,2022-07-27 08:33:48,15.08833647,0.0001496,53.2196,340.8116,53.5397,306.5732,7.9532e-05,9.78e-06,0.0,0 STARLINK-3341,1 50817U 22001Q   22208.35681574  .00000978  00000-0  79532-4 0  9993,2 50817  53.2196 340.8116 0001496  53.5397 306.5732 15.08833647 30930,6917.9,95.438,540.8,538.73,0.0
50817.0,STARLINK-3341,PAYLOAD,2022-07-27 14:55:21,15.08837826,0.0001496999999999,53.2197,339.6226,54.1776,305.9355,6.7481e-05,7.86e-06,0.0,0 STARLINK-3341,1 50817U 22001Q   22208.62177403  .00000786  00000-0  67481-4 0  9991,2 50817  53.2197 339.6226 0001497  54.1776 305.9355 15.08837826 32229,6917.887,95.438,540.788,538.716,0.0
50817.0,STARLINK-3341,PAYLOAD,2022-07-27 16:30:44,15.08837837,0.0001486999999999,53.2197,339.3252,53.5696,306.5433,6.1405e-05,6.89e-06,0.0,0 STARLINK-3341,1 50817U 22001Q   22208.68801430  .00000689  00000-0  61405-4 0  9993,2 50817  53.2197 339.3252 0001487  53.5696 306.5433 15.08837837 30985,6917.887,95.438,540.781,538.7230000000002,0.0
50817.0,STARLINK-3341,PAYLOAD,2022-07-28 08:24:35,15.08838836,0.0001462,53.2196,336.351,53.1809,306.9317,0.000168,2.387e-05,0.0,0 STARLINK-3341,1 50817U 22001Q   22209.35041029  .00002387  00000-0  16800-3 0  9993,2 50817  53.2196 336.3510 0001462  53.1809 306.9317 15.08838836 31080,6917.884,95.438,540.76,538.738,0.0
50817.0,STARLINK-3341,PAYLOAD,2022-07-28 16:21:30,15.08844854,0.0001475,53.2196,334.8644,53.1794,306.9333,0.00017708,2.532e-05,0.0,0 STARLINK-3341,1 50817U 22001Q   22209.68160618  .00002532  00000-0  17708-3 0  9995,2 50817  53.2196 334.8644 0001475  53.1794 306.9333 15.08844854 31139,6917.866,95.437,540.751,538.71,0.0
50817.0,STARLINK-3341,PAYLOAD,2022-07-29 17:47:41,15.08840672,0.0001465999999999,53.2195,330.106,56.681,303.4322,2.9404e-05,1.8e-06,0.0,0 STARLINK-3341,1 50817U 22001Q   22210.74145260  .00000180  00000-0  29404-4 0  9994,2 50817  53.2195 330.1060 0001466  56.6810 303.4322 15.08840672 31297,6917.878000000002,95.438,540.757,538.729,0.0
50817.0,STARLINK-3341,PAYLOAD,2022-07-30 14:27:42,15.08836313,0.0001534,53.2193,326.2414,52.349,307.7641,-8.362e-05,-1.618e-05,0.0,0 STARLINK-3341,1 50817U 22001Q   22211.60257789 -.00001618  00000-0 -83620-4 0  9999,2 50817  53.2193 326.2414 0001534  52.3490 307.7641 15.08836313 32678,6917.892,95.438,540.818,538.695,0.0
50817.0,STARLINK-3341,PAYLOAD,2022-07-31 07:56:57,15.08835097,0.0001485,53.2193,322.9703,49.1765,310.9356,-1.1562e-05,-4.72e-06,0.0,0 STARLINK-3341,1 50817U 22001Q   22212.33121839 -.00000472  00000-0 -11562-4 0  9999,2 50817  53.2193 322.9703 0001485  49.1765 310.9356 15.08835097 31537,6917.895,95.438,540.788,538.7330000000002,0.0
50817.0,STARLINK-3341,PAYLOAD,2022-07-31 14:18:29,15.088371100000002,0.0001503,53.2193,321.781,49.3102,310.802,5.7437e-06,-1.97e-06,0.0,0 STARLINK-3341,1 50817U 22001Q   22212.59617720 -.00000197  00000-0  57437-5 0  9991,2 50817  53.2193 321.7810 0001503  49.3102 310.8020 15.08837110 31570,6917.889,95.438,540.794,538.714,0.0
50817.0,STARLINK-3341,PAYLOAD,2022-07-31 23:50:48,15.08838891,0.0001537,53.2193,319.9969,49.9471,310.1656,2.4676e-05,1.05e-06,0.0,0 STARLINK-3341,1 50817U 22001Q   22212.99361614  .00000105  00000-0  24676-4 0  9999,2 50817  53.2193 319.9969 0001537  49.9471 310.1656 15.08838891 32886,6917.884,95.438,540.812,538.685,0.0
50817.0,STARLINK-3341,PAYLOAD,2022-08-01 14:09:16,15.08838493,0.0001573,53.2192,317.321,51.6384,308.4749,0.00012254,1.663e-05,0.0,0 STARLINK-3341,1 50817U 22001Q   22213.58977393  .00001663  00000-0  12254-3 0  9990,2 50817  53.2192 317.3210 0001573  51.6384 308.4749 15.08838493 31722,6917.885,95.438,540.8380000000002,538.6619999999998,0.0
50817.0,STARLINK-3341,PAYLOAD,2022-08-02 12:24:40,15.08836841,0.0001764999999999,53.2187,313.1577,44.8074,315.3061,3.2517e-05,2.29e-06,0.0,0 STARLINK-3341,1 50817U 22001Q   22214.51713813  .00000229  00000-0  32517-4 0  9991,2 50817  53.2187 313.1577 0001765  44.8074 315.3061 15.08836841 31863,6917.89,95.438,540.976,538.534,0.0
50817.0,STARLINK-3341,PAYLOAD,2022-08-03 12:15:27,15.0884311,0.0001639,53.219,308.6975,54.7454,305.3692,1.1517e-05,-1.05e-06,0.0,0 STARLINK-3341,1 50817U 22001Q   22215.51073483 -.00000105  00000-0  11517-4 0  9995,2 50817  53.2190 308.6975 0001639  54.7454 305.3692 15.08843110 32014,6917.871,95.437,540.87,538.602,0.0
50817.0,STARLINK-3341,PAYLOAD,2022-08-03 15:26:13,15.08844111,0.000164,53.219,308.103,55.5965,304.5182,2.1187e-05,4.9e-07,0.0,0 STARLINK-3341,1 50817U 22001Q   22215.64321376  .00000049  00000-0  21187-4 0  9996,2 50817  53.2190 308.1030 0001640  55.5965 304.5182 15.08844111 32038,6917.868,95.437,540.867,538.5980000000002,0.0
50817.0,STARLINK-3341,PAYLOAD,2022-08-04 12:06:14,15.08835902,0.0001673,53.2189,304.2373,57.087,303.0283,7.2956e-05,8.73e-06,0.0,0 STARLINK-3341,1 50817U 22001Q   22216.50433526  .00000873  00000-0  72956-4 0  9998,2 50817  53.2189 304.2373 0001673  57.0870 303.0283 15.08835902 32169,6917.893,95.438,540.915,538.601,0.0
50817.0,STARLINK-3341,PAYLOAD,2022-08-04 13:41:38,15.0883131,0.0001605,53.2189,303.9402,54.8033,305.3109,2.9068e-05,1.75e-06,0.0,0 STARLINK-3341,1 50817U 22001Q   22216.57057964  .00000175  00000-0  29068-4 0  9994,2 50817  53.2189 303.9402 0001605  54.8033 305.3109 15.08831310 32171,6917.906999999997,95.438,540.882,538.6619999999998,0.0
50817.0,STARLINK-3341,PAYLOAD,2022-08-05 11:57:01,15.08841534,0.0001645,53.2189,299.7778,53.4905,306.6238,1.3051e-05,-8e-07,0.0,0 STARLINK-3341,1 50817U 22001Q   22217.49793643 -.00000080  00000-0  13051-4 0  9998,2 50817  53.2189 299.7778 0001645  53.4905 306.6238 15.08841534 33566,6917.876,95.437,540.879,538.6030000000002,0.0
